ONEWEB-0328             
1 49197U 21083M   24267.78535311  .00000214  00000+0  55082-3 0  9997
2 49197  87.8847  85.8529 0001734  84.7261 275.4066 13.13468067148017
ONEWEB-0331             
1 49198U 21083N   24267.78009022  .00000071  00000+0  14677-3 0  9999
2 49198  87.9059 101.1360 0001673  74.8190 285.3127 13.18687221146793
ONEWEB-0333             
1 49199U 21083P   24267.78058833  .00000181  00000+0  46110-3 0  9993
2 49199  87.8855  85.8908 0001716  93.3050 266.8276 13.13469057148029
ONEWEB-0334             
1 49200U 21083Q   24267.60159196  .00000072  00000+0  14541-3 0  9993
2 49200  87.9246  40.0987 0002086 128.5530 231.5791 13.20770189153422
ONEWEB-0335             
1 49201U 21083R   24267.92819168 -.00000013  00000+0 -69536-4 0  9993
2 49201  87.8857  85.8498 0001792  85.5232 274.6102 13.13470097148052
ONEWEB-0336             
1 49202U 21083S   24267.89804359 -.00000122  00000+0 -36977-3 0  9999
2 49202  87.8854  85.8508 0001501  91.1318 268.9983 13.13469645148047
ONEWEB-0337             
1 49203U 21083T   24267.90741595 -.00000247  00000+0 -71261-3 0  9997
2 49203  87.8859  85.8479 0001723  85.4532 274.6794 13.13468590148042
ONEWEB-0338             
1 49204U 21083U   24267.60869741  .00000015  00000+0  48443-5 0  9998
2 49204  87.9250  40.0868 0002004 107.1533 252.9819 13.20773200153442
ONEWEB-0339             
1 49205U 21083V   24267.76629810 -.00000114  00000+0 -34644-3 0  9995
2 49205  87.8858  85.8694 0001762  87.7681 272.3650 13.13464546148004
ONEWEB-0340             
1 49206U 21083W   24267.84172682  .00000039  00000+0  65624-4 0  9992
2 49206  87.9060 101.1193 0001655  80.8111 279.3208 13.18683998146766
ONEWEB-0341             
1 49207U 21083X   24267.77375289 -.00000077  00000+0 -22773-3 0  9994
2 49207  87.9058 101.1456 0002354  79.3350 280.8048 13.18683411146771
ONEWEB-0342             
1 49208U 21083Y   24267.61501378  .00000176  00000+0  40145-3 0  9999
2 49208  87.9238  40.0868 0001951 102.3522 257.7829 13.20772067153418
ONEWEB-0343             
1 49209U 21083Z   24267.76903682  .00000012  00000+0 -16121-5 0  9999
2 49209  87.9052 101.1479 0002368  87.0210 273.1193 13.18685596146826
ONEWEB-0344             
1 49210U 21083AA  24267.88533715  .00000255  00000+0  66269-3 0  9994
2 49210  87.8858  85.8654 0001976  77.5662 282.5688 13.13468789148028
ONEWEB-0345             
1 49211U 21083AB  24267.90279072 -.00000243  00000+0 -69920-3 0  9997
2 49211  87.8855  85.8342 0001975  75.6885 284.4463 13.13470029148038
ONEWEB-0346             
1 49212U 21083AC  24267.93024595 -.00000012  00000+0 -63691-4 0  9993
2 49212  87.9058 101.1232 0001458  73.4565 286.6728 13.18683872146787
ONEWEB-0348             
1 49213U 21083AD  24267.60553515  .00000064  00000+0  12477-3 0  9997
2 49213  87.9253  40.0706 0001737  75.4683 284.6643 13.20772689153448
ONEWEB-0350             
1 49214U 21083AE  24267.75995849 -.00000168  00000+0 -49439-3 0  9999
2 49214  87.8853  85.8541 0001958  81.0824 279.0527 13.13469303148040
ONEWEB-0351             
1 49215U 21083AF  24267.67482431  .00000084  00000+0  17465-3 0  9998
2 49215  87.9247  40.0516 0002622 110.5015 249.6400 13.20768377153414
ONEWEB-0352             
1 49216U 21083AG  24267.89326099  .00000007  00000+0 -16426-4 0  9993
2 49216  87.8857  85.8612 0002091  95.8222 264.3146 13.13467120148150
ONEWEB-0354             
1 49217U 21083AH  24267.62447268  .00000179  00000+0  40722-3 0  9991
2 49217  87.9247  40.0500 0001981  89.9157 270.2203 13.20770287154754
ONEWEB-0355             
1 49218U 21083AJ  24267.92342124 -.00000188  00000+0 -55113-3 0  9992
2 49218  87.8859  85.8545 0001860  88.8179 271.3163 13.13468965148037
ONEWEB-0357             
1 49219U 21083AK  24267.62129544  .00000153  00000+0  34411-3 0  9997
2 49219  87.9243  40.0657 0002033  98.7745 261.3619 13.20768881153449
ONEWEB-0332             
1 49279U 21090A   24267.66937003 -.00000069  00000+0 -21994-3 0  9992
2 49279  87.8961  55.3047 0001677 106.9537 253.1777 13.14506491144610
ONEWEB-0347             
1 49280U 21090B   24267.61185814  .00000160  00000+0  36275-3 0  9992
2 49280  87.9248  40.0690 0001714 114.4782 245.6531 13.20771794147674
ONEWEB-0349             
1 49281U 21090C   24267.79492498  .00000088  00000+0  18522-3 0  9995
2 49281  87.9251  40.0341 0001664 101.5148 258.6172 13.20773211146488
ONEWEB-0353             
1 49282U 21090D   24267.81370210 -.00000093  00000+0 -28554-3 0  9990
2 49282  87.8962  55.2612 0001707 104.4760 255.6559 13.14501915144630
ONEWEB-0356             
1 49283U 21090E   24267.64183876  .00000062  00000+0  12065-3 0  9996
2 49283  87.9251  40.0581 0000882  83.0317 277.0917 13.20770509147759
ONEWEB-0358             
1 49284U 21090F   24267.82331877 -.00000014  00000+0 -66197-4 0  9998
2 49284  87.9256  40.0097 0001559  89.8855 270.2457 13.20774462147217
ONEWEB-0359             
1 49285U 21090G   24267.82018689  .00000051  00000+0  92726-4 0  9998
2 49285  87.9252  40.0269 0002006  86.5868 273.5494 13.20770612147198
ONEWEB-0360             
1 49286U 21090H   24267.65917906  .00000114  00000+0  24759-3 0  9990
2 49286  87.9251  40.0641 0001871  95.0048 265.1299 13.20771189146487
ONEWEB-0361             
1 49287U 21090J   24267.64026630  .00000164  00000+0  37133-3 0  9990
2 49287  87.9251  40.0624 0001637  98.9474 261.1845 13.20771079146935
ONEWEB-0362             
1 49288U 21090K   24267.92662498 -.00000025  00000+0 -95112-4 0  9990
2 49288  87.9106  70.5405 0002086  94.3414 265.7957 13.19726302143650
ONEWEB-0363             
1 49289U 21090L   24267.65603524  .00000115  00000+0  25140-3 0  9997
2 49289  87.9252  40.0545 0001410  88.9647 271.1648 13.20770520146943
ONEWEB-0364             
1 49290U 21090M   24267.61813617  .00000208  00000+0  47848-3 0  9993
2 49290  87.9249  40.0882 0001686  99.0875 261.0449 13.20775465148072
ONEWEB-0365             
1 49291U 21090N   24267.70864658  .00000116  00000+0  25776-3 0  9999
2 49291  87.9104  70.5580 0001767  95.9807 264.1528 13.19727287143137
ONEWEB-0366             
1 49292U 21090P   24267.88664225  .00000031  00000+0  49095-4 0  9994
2 49292  87.8963  55.2566 0001650  96.1131 264.0186 13.14503123144628
ONEWEB-0367             
1 49293U 21090Q   24267.65443838  .00000121  00000+0  26687-3 0  9996
2 49293  87.9252  40.0495 0001785 103.9937 256.1395 13.20767269146462
ONEWEB-0368             
1 49294U 21090R   24267.62760844  .00000101  00000+0  21767-3 0  9995
2 49294  87.9251  40.0859 0001278 129.2213 230.9034 13.20774660148916
ONEWEB-0369             
1 49295U 21090S   24267.70391512  .00000011  00000+0 -44181-5 0  9995
2 49295  87.9108  70.5689 0001791  93.9042 266.2295 13.19724175143127
ONEWEB-0370             
1 49296U 21090T   24267.66391788  .00000100  00000+0  21355-3 0  9990
2 49296  87.9254  40.0523 0002043  92.9168 267.2199 13.20773976146502
ONEWEB-0371             
1 49297U 21090U   24267.71178663  .00000155  00000+0  35410-3 0  9999
2 49297  87.9107  70.5569 0001853  93.8712 266.2633 13.19724718143160
ONEWEB-0372             
1 49298U 21090V   24267.65274994  .00000044  00000+0  75975-4 0  9995
2 49298  87.9252  40.0630 0001824 101.7855 258.3483 13.20772832146472
ONEWEB-0373             
1 49299U 21090W   24267.60395300  .00000083  00000+0  17343-3 0  9993
2 49299  87.9251  40.0876 0001477 101.2015 258.9284 13.20773043147652
ONEWEB-0374             
1 49300U 21090X   24267.64559971  .00000171  00000+0  42612-3 0  9991
2 49300  87.8963  55.2885 0001599  97.5845 262.5466 13.14503880144591
ONEWEB-0375             
1 49301U 21090Y   24267.81859938  .00000067  00000+0  13313-3 0  9997
2 49301  87.9252  40.0216 0001237  79.0629 281.0643 13.20772635147182
ONEWEB-0376             
1 49302U 21090Z   24267.71023301  .00000148  00000+0  33805-3 0  9992
2 49302  87.9103  70.5594 0001801 101.1594 258.9741 13.19724077143161
ONEWEB-0377             
1 49303U 21090AA  24267.80454481  .00000065  00000+0  12772-3 0  9998
2 49303  87.9252  40.0162 0001913  91.5106 268.6247 13.20770292147171
ONEWEB-0378             
1 49304U 21090AB  24267.59933772  .00000057  00000+0  10878-3 0  9996
2 49304  87.9253  40.0609 0001689  96.3736 263.7590 13.20776207147732
ONEWEB-0379             
1 49305U 21090AC  24267.71696443  .00000386  00000+0  10068-2 0  9997
2 49305  87.8962  55.2779 0001657  97.7595 262.3723 13.14502664144601
ONEWEB-0380             
1 49306U 21090AD  24267.85869130  .00001012  00000+0  24940-2 0  9999
2 49306  87.9107  70.5404 0001542  90.4839 269.6471 13.19732819143154
ONEWEB-0381             
1 49307U 21090AE  24267.64973541  .00000132  00000+0  29212-3 0  9999
2 49307  87.9252  40.0540 0001805  91.7951 268.3389 13.20770845146464
ONEWEB-0382             
1 49308U 21090AF  24267.40984175  .00000172  00000+0  39021-3 0  9992
2 49308  87.9248  40.0981 0001380  97.7201 262.4089 13.20770567146420
ONEWEB-0383             
1 49309U 21090AG  24267.71059993  .00000293  00000+0  75618-3 0  9994
2 49309  87.8962  55.2653 0001448  98.6856 261.4438 13.14503626144639
ONEWEB-0384             
1 49310U 21090AH  24267.63390654 -.00001164  00000+0 -28941-2 0  9995
2 49310  87.9248  40.0666 0001140  94.0696 266.0567 13.20775006146463
ONEWEB-0385             
1 49311U 21090AJ  24267.40193758  .00001134  00000+0  27562-2 0  9990
2 49311  87.9276  40.1157 0001345  92.1440 267.9847 13.20763349146406
ONEWEB-0386             
1 49312U 21090AK  24267.64657077  .00000121  00000+0  26486-3 0  9996
2 49312  87.9247  40.0533 0001460  93.6274 266.5026 13.20772003147762
ONEWEB-0387             
1 49313U 21090AL  24267.63076177  .00000207  00000+0  47741-3 0  9994
2 49313  87.9251  40.1252 0001689  85.1115 275.0211 13.20768741146450
ONEWEB-0388             
1 49314U 21090AM  24267.70233981  .00000128  00000+0  28740-3 0  9991
2 49314  87.9110  70.5756 0001637  94.0217 266.1103 13.19725277143123
